{
  "type": "FeatureCollection",
  "features": [
    {
      "type": "Feature",
      "properties": {
        "norad_id": 57400,
        "name": "TIANMU-1 08",
        "group": "weather",
        "lat": 67.11928830224554,
        "lon": 31.130827579127264,
        "alt_km": 470.132506112006,
        "timestamp": "2025-12-25T09:48:51.931183+00:00",
        "meta_object_name": "TIANMU-1 08",
        "meta_object_id": "2023-101B",
        "meta_epoch": "2025-12-24T22:31:01.224768",
        "meta_mean_motion": 15.28223184,
        "meta_eccentricity": 0.00069477,
        "meta_inclination": 97.2844,
        "meta_ra_of_asc_node": 48.3147,
        "meta_arg_of_pericenter": 49.3419,
        "meta_mean_anomaly": 310.8424,
        "meta_ephemeris_type": 0,
        "meta_classification_type": "U",
        "meta_norad_cat_id": 57400,
        "meta_element_set_no": 999,
        "meta_rev_at_epoch": 13501,
        "meta_bstar": 0.00027759286,
        "meta_mean_motion_dot": 7.567e-05,
        "meta_mean_motion_ddot": 0,
        "tle_line1": "1 57400U 23101B   25358.93820862  .00007567  00000+0  27759-3 0  9991",
        "tle_line2": "2 57400  97.2844  48.3147 0006947  49.3419 310.8424 15.28223184135013"
      },
      "geometry": {
        "type": "Point",
        "coordinates": [
          31.130827579127264,
          67.11928830224554
        ]
      }
    },
    {
      "type": "Feature",
      "properties": {
        "norad_id": 57401,
        "name": "TIANMU-1 09",
        "group": "weather",
        "lat": 37.094810088241104,
        "lon": -126.17117459531734,
        "alt_km": 478.71056330849206,
        "timestamp": "2025-12-25T09:48:51.931195+00:00",
        "meta_object_name": "TIANMU-1 09",
        "meta_object_id": "2023-101C",
        "meta_epoch": "2025-12-24T22:11:37.281984",
        "meta_mean_motion": 15.28258189,
        "meta_eccentricity": 0.00062324,
        "meta_inclination": 97.2801,
        "meta_ra_of_asc_node": 47.8084,
        "meta_arg_of_pericenter": 50.3076,
        "meta_mean_anomaly": 309.8712,
        "meta_ephemeris_type": 0,
        "meta_classification_type": "U",
        "meta_norad_cat_id": 57401,
        "meta_element_set_no": 999,
        "meta_rev_at_epoch": 13501,
        "meta_bstar": 0.00028071882,
        "meta_mean_motion_dot": 7.66e-05,
        "meta_mean_motion_ddot": 0,
        "tle_line1": "1 57401U 23101C   25358.92473706  .00007660  00000+0  28072-3 0  9995",
        "tle_line2": "2 57401  97.2801  47.8084 0006232  50.3076 309.8712 15.28258189135010"
      },
      "geometry": {
        "type": "Point",
        "coordinates": [
          -126.17117459531734,
          37.094810088241104
        ]
      }
    },
    {
      "type": "Feature",
      "properties": {
        "norad_id": 57402,
        "name": "TIANMU-1 10",
        "group": "weather",
        "lat": -45.769389063524706,
        "lon": 56.69939556095343,
        "alt_km": 488.04588823501126,
        "timestamp": "2025-12-25T09:48:51.931206+00:00",
        "meta_object_name": "TIANMU-1 10",
        "meta_object_id": "2023-101D",
        "meta_epoch": "2025-12-24T23:00:58.749120",
        "meta_mean_motion": 15.2825076,
        "meta_eccentricity": 0.00079441,
        "meta_inclination": 97.2882,
        "meta_ra_of_asc_node": 48.7048,
        "meta_arg_of_pericenter": 47.6481,
        "meta_mean_anomaly": 312.543,
        "meta_ephemeris_type": 0,
        "meta_classification_type": "U",
        "meta_norad_cat_id": 57402,
        "meta_element_set_no": 999,
        "meta_rev_at_epoch": 13501,
        "meta_bstar": 0.00030512993,
        "meta_mean_motion_dot": 8.334e-05,
        "meta_mean_motion_ddot": 0,
        "tle_line1": "1 57402U 23101D   25358.95901330  .00008334  00000+0  30513-3 0  9990",
        "tle_line2": "2 57402  97.2882  48.7048 0007944  47.6481 312.5430 15.28250760135015"
      },
      "geometry": {
        "type": "Point",
        "coordinates": [
          56.69939556095343,
          -45.769389063524706
        ]
      }
    },
    {
      "type": "Feature",
      "properties": {
        "norad_id": 57490,
        "name": "FENGYUN 3F",
        "group": "weather",
        "lat": -35.69872580072741,
        "lon": 73.81841984622766,
        "alt_km": 832.4713499043537,
        "timestamp": "2025-12-25T09:48:51.931216+00:00",
        "meta_object_name": "FENGYUN 3F",
        "meta_object_id": "2023-111A",
        "meta_epoch": "2025-12-24T22:08:45.518784",
        "meta_mean_motion": 14.19896648,
        "meta_eccentricity": 8.301e-05,
        "meta_inclination": 98.7067,
        "meta_ra_of_asc_node": 67.0187,
        "meta_arg_of_pericenter": 117.1832,
        "meta_mean_anomaly": 242.9429,
        "meta_ephemeris_type": 0,
        "meta_classification_type": "U",
        "meta_norad_cat_id": 57490,
        "meta_element_set_no": 999,
        "meta_rev_at_epoch": 12413,
        "meta_bstar": 5.574962e-05,
        "meta_mean_motion_dot": 7.5e-07,
        "meta_mean_motion_ddot": 0,
        "tle_line1": "1 57490U 23111A   25358.92274906  .00000075  00000+0  55750-4 0  9992",
        "tle_line2": "2 57490  98.7067  67.0187 0000830 117.1832 242.9429 14.19896648124136"
      },
      "geometry": {
        "type": "Point",
        "coordinates": [
          73.81841984622766,
          -35.69872580072741
        ]
      }
    },
    {
      "type": "Feature",
      "properties": {
        "norad_id": 58584,
        "name": "ARKTIKA-M 2",
        "group": "weather",
        "lat": 55.16249043036839,
        "lon": -139.9727234125614,
        "alt_km": 32624.591383249277,
        "timestamp": "2025-12-25T09:48:51.931228+00:00",
        "meta_object_name": "ARKTIKA-M 2",
        "meta_object_id": "2023-198A",
        "meta_epoch": "2025-12-23T19:04:51.780000",
        "meta_mean_motion": 2.00602438,
        "meta_eccentricity": 0.68658211,
        "meta_inclination": 63.2256,
        "meta_ra_of_asc_node": 173.6885,
        "meta_arg_of_pericenter": 268.0594,
        "meta_mean_anomaly": 18.8414,
        "meta_ephemeris_type": 0,
        "meta_classification_type": "U",
        "meta_norad_cat_id": 58584,
        "meta_element_set_no": 999,
        "meta_rev_at_epoch": 1480,
        "meta_bstar": 0,
        "meta_mean_motion_dot": 2.16e-06,
        "meta_mean_motion_ddot": 0,
        "tle_line1": "1 58584U 23198A   25357.79504375  .00000216  00000+0  00000+0 0  9992",
        "tle_line2": "2 58584  63.2256 173.6885 6865821 268.0594  18.8414  2.00602438 14808"
      },
      "geometry": {
        "type": "Point",
        "coordinates": [
          -139.9727234125614,
          55.16249043036839
        ]
      }
    },
    {
      "type": "Feature",
      "properties": {
        "norad_id": 58645,
        "name": "TIANMU-1 11",
        "group": "weather",
        "lat": -25.7015682385954,
        "lon": 22.376144718750528,
        "alt_km": 496.17099148023954,
        "timestamp": "2025-12-25T09:48:51.931240+00:00",
        "meta_object_name": "TIANMU-1 11",
        "meta_object_id": "2023-205A",
        "meta_epoch": "2025-12-24T22:54:09.355680",
        "meta_mean_motion": 15.24742937,
        "meta_eccentricity": 0.00075604,
        "meta_inclination": 97.3596,
        "meta_ra_of_asc_node": 18.3628,
        "meta_arg_of_pericenter": 258.0728,
        "meta_mean_anomaly": 101.9662,
        "meta_ephemeris_type": 0,
        "meta_classification_type": "U",
        "meta_norad_cat_id": 58645,
        "meta_element_set_no": 999,
        "meta_rev_at_epoch": 11095,
        "meta_bstar": 0.00027547539,
        "meta_mean_motion_dot": 6.756e-05,
        "meta_mean_motion_ddot": 0,
        "tle_line1": "1 58645U 23205A   25358.95427495  .00006756  00000+0  27548-3 0  9990",
        "tle_line2": "2 58645  97.3596  18.3628 0007560 258.0728 101.9662 15.24742937110952"
      },
      "geometry": {
        "type": "Point",
        "coordinates": [
          22.376144718750528,
          -25.7015682385954
        ]
      }
    },
    {
      "type": "Feature",
      "properties": {
        "norad_id": 58646,
        "name": "TIANMU-1 12",
        "group": "weather",
        "lat": -1.1254843005916206,
        "lon": -161.5347354462877,
        "alt_km": 492.6552049435104,
        "timestamp": "2025-12-25T09:48:51.931250+00:00",
        "meta_object_name": "TIANMU-1 12",
        "meta_object_id": "2023-205B",
        "meta_epoch": "2025-12-24T23:34:17.452416",
        "meta_mean_motion": 15.24630815,
        "meta_eccentricity": 0.00059848,
        "meta_inclination": 97.3585,
        "meta_ra_of_asc_node": 18.1915,
        "meta_arg_of_pericenter": 235.6966,
        "meta_mean_anomaly": 124.3706,
        "meta_ephemeris_type": 0,
        "meta_classification_type": "U",
        "meta_norad_cat_id": 58646,
        "meta_element_set_no": 999,
        "meta_rev_at_epoch": 11094,
        "meta_bstar": 0.00026860302,
        "meta_mean_motion_dot": 6.562e-05,
        "meta_mean_motion_ddot": 0,
        "tle_line1": "1 58646U 23205B   25358.98214644  .00006562  00000+0  26860-3 0  9995",
        "tle_line2": "2 58646  97.3585  18.1915 0005984 235.6966 124.3706 15.24630815110949"
      },
      "geometry": {
        "type": "Point",
        "coordinates": [
          -161.5347354462877,
          -1.1254843005916206
        ]
      }
    }
  ]
}